NORAD_CAT_ID,OBJECT_NAME,OBJECT_TYPE,EPOCH,MEAN_MOTION,ECCENTRICITY,INCLINATION,RA_OF_ASC_NODE,ARG_OF_PERICENTER,MEAN_ANOMALY,BSTAR,MEAN_MOTION_DOT,MEAN_MOTION_DDOT,TLE_LINE0,TLE_LINE1,TLE_LINE2,SEMIMAJOR_AXIS,PERIOD,APOGEE,PERIGEE,DECAYED
52131.0,STARLINK-3711,PAYLOAD,2023-11-30 19:40:05,15.08828682,0.0001456,53.2157,194.5597,76.437,283.6785,6.5848e-05,7.6e-06,0.0,0 STARLINK-3711,1 52131U 22029AV  23334.81951363  .00000760  00000-0  65848-4 0  9996,2 52131  53.2157 194.5597 0001456  76.4370 283.6785 15.08828682 95652,6917.915,95.438,540.787,538.773,0.0
52131.0,STARLINK-3711,PAYLOAD,2023-12-01 19:30:52,15.08846757,0.0001679,53.2162,190.0908,56.966,303.1493,-8.074e-06,-4.17e-06,0.0,0 STARLINK-3711,1 52131U 22029AV  23335.81310899 -.00000417  00000-0 -80740-5 0  9990,2 52131  53.2162 190.0908 0001679  56.9660 303.1493 15.08846757 95801,6917.86,95.437,540.886,538.563,0.0
52131.0,STARLINK-3711,PAYLOAD,2023-12-01 21:06:14,15.08851614,0.0001506,53.2161,189.7947,75.1219,284.994,0.00013548,1.869e-05,0.0,0 STARLINK-3711,1 52131U 22029AV  23335.87934024  .00001869  00000-0  13548-3 0  9998,2 52131  53.2161 189.7947 0001506  75.1219 284.9940 15.08851614 95812,6917.845,95.437,540.752,538.668,0.0
52131.0,STARLINK-3711,PAYLOAD,2023-12-02 00:17:01,15.08850159,0.0002064,53.2166,189.1975,56.828,303.291,9.2815e-05,1.19e-05,0.0,0 STARLINK-3711,1 52131U 22029AV  23336.01182306  .00001190  00000-0  92815-4 0  9995,2 52131  53.2166 189.1975 0002064  56.8280 303.2910 15.08850159 95833,6917.849,95.437,541.142,538.286,0.0
52131.0,STARLINK-3711,PAYLOAD,2023-12-02 19:21:39,15.08837187,0.0001359,53.2157,185.6314,102.0796,258.0349,-8.9003e-06,-4.3e-06,0.0,0 STARLINK-3711,1 52131U 22029AV  23336.80671111 -.00000430  00000-0 -89003-5 0  9993,2 52131  53.2157 185.6314 0001359 102.0796 258.0349 15.08837187 95955,6917.889,95.438,540.694,538.814,0.0
52131.0,STARLINK-3711,PAYLOAD,2023-12-03 14:26:18,15.08833877,0.0001462,53.2153,182.0633,99.3827,260.7331,-0.00018383,-3.212e-05,0.0,0 STARLINK-3711,1 52131U 22029AV  23337.60160394 -.00003212  00000-0 -18383-3 0  9990,2 52131  53.2153 182.0633 0001462  99.3827 260.7331 15.08833877 96071,6917.899,95.438,540.776,538.753,0.0
52131.0,STARLINK-3711,PAYLOAD,2023-12-03 19:12:28,15.08831631,0.0001249,53.2156,181.172,95.1084,265.0051,-0.0001972,-3.424e-05,0.0,0 STARLINK-3711,1 52131U 22029AV  23337.80032669 -.00003424  00000-0 -19720-3 0  9996,2 52131  53.2156 181.1720 0001249  95.1084 265.0051 15.08831631 96100,6917.906,95.438,540.635,538.907,0.0
52131.0,STARLINK-3711,PAYLOAD,2023-12-03 20:47:51,15.08832359,0.0001247,53.2156,180.8745,95.1487,264.9647,-0.00018544,-3.237e-05,0.0,0 STARLINK-3711,1 52131U 22029AV  23337.86656602 -.00003237  00000-0 -18544-3 0  9996,2 52131  53.2156 180.8745 0001247  95.1487 264.9647 15.08832359 96116,6917.904,95.438,540.631,538.906,0.0
52131.0,STARLINK-3711,PAYLOAD,2023-12-04 15:52:29,15.08824496,0.0001257,53.216,177.3052,98.0547,262.0588,-2.5256e-05,-6.9e-06,0.0,0 STARLINK-3711,1 52131U 22029AV  23338.66145126 -.00000690  00000-0 -25256-4 0  9998,2 52131  53.2160 177.3052 0001257  98.0547 262.0588 15.08824496 96232,6917.928,95.439,540.662,538.923,0.0
52131.0,STARLINK-3711,PAYLOAD,2023-12-05 22:04:49,15.08824352,8.79e-05,53.2157,171.6554,111.3397,248.7689,0.00019038,2.742e-05,0.0,0 STARLINK-3711,1 52131U 22029AV  23339.92001302  .00002742  00000-0  19038-3 0  9993,2 52131  53.2157 171.6554 0000879 111.3397 248.7689 15.08824352 96428,6917.928,95.439,540.401,539.185,0.0
52131.0,STARLINK-3711,PAYLOAD,2023-12-06 12:23:16,15.08839909,0.0001177,53.2156,168.9793,97.6605,262.452,6.292e-05,7.14e-06,0.0,0 STARLINK-3711,1 52131U 22029AV  23340.51616675  .00000714  00000-0  62920-4 0  9991,2 52131  53.2156 168.9793 0001177  97.6605 262.4520 15.08839909 96512,6917.881,95.438,540.56,538.931,0.0
52131.0,STARLINK-3711,PAYLOAD,2023-12-07 12:14:03,15.08846072,0.0001176,53.2156,164.5183,101.4507,258.6617,8.948e-05,1.137e-05,0.0,0 STARLINK-3711,1 52131U 22029AV  23341.50975922  .00001137  00000-0  89480-4 0  9994,2 52131  53.2156 164.5183 0001176 101.4507 258.6617 15.08846072 96660,6917.862,95.437,540.54,538.913,0.0
52131.0,STARLINK-3711,PAYLOAD,2023-12-08 12:04:50,15.08843686,0.0001129,53.2156,160.0584,100.2003,259.9116,6.8196e-05,7.98e-06,0.0,0 STARLINK-3711,1 52131U 22029AV  23342.50335964  .00000798  00000-0  68196-4 0  9994,2 52131  53.2156 160.0584 0001129 100.2003 259.9116 15.08843686 96815,6917.869,95.437,540.515,538.953,0.0
52131.0,STARLINK-3711,PAYLOAD,2023-12-09 11:55:37,15.08839056,0.0001067,53.2157,155.5979,99.4573,260.654,6.971e-06,-1.77e-06,0.0,0 STARLINK-3711,1 52131U 22029AV  23343.49696157 -.00000177  00000-0  69710-5 0  9993,2 52131  53.2157 155.5979 0001067  99.4573 260.6540 15.08839056 96967,6917.883,95.438,540.486,539.01,0.0
52131.0,STARLINK-3711,PAYLOAD,2023-12-10 14:57:10,15.08838539,0.0001039,53.216,150.5433,89.8081,270.303,-2.9061e-05,-7.5e-06,0.0,0 STARLINK-3711,1 52131U 22029AV  23344.62303986 -.00000750  00000-0 -29061-4 0  9996,2 52131  53.2160 150.5433 0001039  89.8081 270.3030 15.08838539 97134,6917.885,95.438,540.469,539.031,0.0
52131.0,STARLINK-3711,PAYLOAD,2023-12-10 18:07:56,15.08837495,0.0001182,53.216,149.9476,99.4362,260.6764,-3.319e-06,-3.41e-06,0.0,0 STARLINK-3711,1 52131U 22029AV  23344.75551813 -.00000341  00000-0 -33190-5 0  9999,2 52131  53.2160 149.9476 0001182  99.4362 260.6764 15.08837495 97159,6917.888,95.438,540.571,538.935,0.0
52131.0,STARLINK-3711,PAYLOAD,2023-12-11 14:47:57,15.08837326,0.0001147,53.216,146.0822,97.6499,262.4624,2.0534e-05,3.9e-07,0.0,0 STARLINK-3711,1 52131U 22029AV  23345.61663784  .00000039  00000-0  20534-4 0  9995,2 52131  53.2160 146.0822 0001147  97.6499 262.4624 15.08837326 97286,6917.889,95.438,540.547,538.96,0.0
52131.0,STARLINK-3711,PAYLOAD,2023-12-11 17:58:43,15.08838461,0.0001182,53.2165,145.4878,99.2165,260.896,2.8177e-05,1.61e-06,0.0,0 STARLINK-3711,1 52131U 22029AV  23345.74911698  .00000161  00000-0  28177-4 0  9996,2 52131  53.2165 145.4878 0001182  99.2165 260.8960 15.08838461 97301,6917.885,95.438,540.568,538.932,0.0
52131.0,STARLINK-3711,PAYLOAD,2023-12-12 17:49:31,15.08834906,0.0001183,53.2164,141.0274,97.1654,262.9473,-6.4012e-06,-3.9e-06,0.0,0 STARLINK-3711,1 52131U 22029AV  23346.74272267 -.00000390  00000-0 -64012-5 0  9994,2 52131  53.2164 141.0274 0001183  97.1654 262.9473 15.08834906 97451,6917.896,95.438,540.579,538.943,0.0
52131.0,STARLINK-3711,PAYLOAD,2023-12-13 14:29:31,15.08839749,0.0001234,53.2167,137.1583,92.0983,268.0151,3.2815e-05,2.34e-06,0.0,0 STARLINK-3711,1 52131U 22029AV  23347.60383854  .00000234  00000-0  32815-4 0  9995,2 52131  53.2167 137.1583 0001234  92.0983 268.0151 15.08839749 97583,6917.881,95.438,540.6,538.892,0.0
52131.0,STARLINK-3711,PAYLOAD,2023-12-13 17:40:17,15.08842131,0.0001255,53.2168,136.5631,84.8575,275.2561,5.1555e-05,5.33e-06,0.0,0 STARLINK-3711,1 52131U 22029AV  23347.73631665  .00000533  00000-0  51555-4 0  9999,2 52131  53.2168 136.5631 0001255  84.8575 275.2561 15.08842131 97607,6917.874,95.437,540.607,538.871,0.0
52131.0,STARLINK-3711,PAYLOAD,2023-12-14 14:20:19,15.08832815,0.0001434,53.217,132.6963,72.275,287.8398,-1.6388e-05,-5.49e-06,0.0,0 STARLINK-3711,1 52131U 22029AV  23348.59744733 -.00000549  00000-0 -16388-4 0  9999,2 52131  53.2170 132.6963 0001434  72.2750 287.8398 15.08832815 97739,6917.902,95.438,540.759,538.775,0.0
52131.0,STARLINK-3711,PAYLOAD,2023-12-14 17:31:05,15.08835638,0.0001291,53.2165,132.1041,74.3669,285.7465,7.8228e-06,-1.63e-06,0.0,0 STARLINK-3711,1 52131U 22029AV  23348.72992509 -.00000163  00000-0  78228-5 0  9993,2 52131  53.2165 132.1041 0001291  74.3669 285.7465 15.08835638 97758,6917.894,95.438,540.652,538.866,0.0
52131.0,STARLINK-3711,PAYLOAD,2023-12-15 14:11:06,15.08838329,0.0001767,53.2172,128.2403,50.567,309.5478,7.6263e-06,-1.67e-06,0.0,0 STARLINK-3711,1 52131U 22029AV  23349.59104576 -.00000167  00000-0  76263-5 0  9999,2 52131  53.2172 128.2403 0001767  50.5670 309.5478 15.08838329 97883,6917.885,95.438,540.973,538.528,0.0
52131.0,STARLINK-3711,PAYLOAD,2023-12-15 15:46:29,15.08842014,0.0001456,53.217,127.9401,66.9563,293.1583,-6.8362e-06,-3.97e-06,0.0,0 STARLINK-3711,1 52131U 22029AV  23349.65728293 -.00000397  00000-0 -68362-5 0  9991,2 52131  53.2170 127.9401 0001456  66.9563 293.1583 15.08842014 97894,6917.874,95.437,540.746,538.732,0.0
52131.0,STARLINK-3711,PAYLOAD,2023-12-16 14:01:53,15.08839102,0.0001385,53.2162,123.7828,65.5918,294.5218,2.2176e-05,6.5e-07,0.0,0 STARLINK-3711,1 52131U 22029AV  23350.58464433  .00000065  00000-0  22176-4 0  9990,2 52131  53.2162 123.7828 0001385  65.5918 294.5218 15.08839102 98033,6917.883,95.438,540.706,538.79,0.0
52131.0,STARLINK-3711,PAYLOAD,2023-12-16 15:37:16,15.08839657,0.0001409,53.2161,123.4856,64.9988,295.1151,2.7542e-05,1.5e-06,0.0,0 STARLINK-3711,1 52131U 22029AV  23350.65088387  .00000150  00000-0  27542-4 0  9995,2 52131  53.2161 123.4856 0001409  64.9988 295.1151 15.08839657 98046,6917.881,95.438,540.721,538.772,0.0
52131.0,STARLINK-3711,PAYLOAD,2023-12-17 12:17:17,15.08837001,0.000139,53.2174,119.6178,97.3907,262.7243,-2.0806e-05,-6.19e-06,0.0,0 STARLINK-3711,1 52131U 22029AV  23351.51200651 -.00000619  00000-0 -20806-4 0  9999,2 52131  53.2174 119.6178 0001390  97.3907 262.7243 15.08837001 98171,6917.89,95.438,540.716,538.793,0.0
52131.0,STARLINK-3711,PAYLOAD,2023-12-17 13:52:40,15.08837433,0.0001388,53.2173,119.3205,94.8519,265.2631,-1.693e-05,-5.57e-06,0.0,0 STARLINK-3711,1 52131U 22029AV  23351.57824635 -.00000557  00000-0 -16930-4 0  9993,2 52131  53.2173 119.3205 0001388  94.8519 265.2631 15.08837433 98185,6917.888,95.438,540.713,538.793,0.0
52131.0,STARLINK-3711,PAYLOAD,2023-12-17 15:28:03,15.08838857,0.0001398,53.2175,119.0215,94.4469,265.6683,-5.9242e-06,-3.82e-06,0.0,0 STARLINK-3711,1 52131U 22029AV  23351.64448498 -.00000382  00000-0 -59242-5 0  9990,2 52131  53.2175 119.0215 0001398  94.4469 265.6683 15.08838857 98199,6917.884,95.438,540.716,538.782,0.0
